SatCatId,ObjectName,LaunchYear,OrbitalPeriod,LaunchMass,StatusCode,Inclination,Status,UcsData,OrbitClassEstimated,LaunchSiteCountry,Owner,UseType,Purpose,LaunchVehicleClass,TLE1,TLE2,MeanMotion,Eccentricity,OrbitClass
49762,STARLINK-3195,2021,95.44,260.0,+,53.22,Active,1,LEO,USA,USA,Commercial,Communications,Falcon,1 49762U 21115AQ  24181.55681492  .00000820  00000+0  69655-4 0  9998,2 49762  53.2183  34.0327 0002713  87.9049 272.2254 15.08848068143472,15.08848068,0.0002713,LEO
49763,STARLINK-3198,2021,95.44,260.0,+,53.22,Active,1,LEO,USA,USA,Commercial,Communications,Falcon,1 49763U 21115AR  24180.81714006  .00002963  00000+0  20419-3 0  9999,2 49763  53.2173  37.3447 0001584 115.9759 244.1396 15.08836147142251,15.08836147,0.0001584,LEO
49764,STARLINK-3206,2021,95.44,260.0,+,53.22,Active,1,LEO,USA,USA,Commercial,Communications,Falcon,1 49764U 21115AS  24181.29865401  .00184505  00000+0  11050-1 0  9991,2 49764  53.2159  35.1827 0001096 161.4379 198.6653 15.09697820143430,15.0969782,0.0001096,LEO
49765,STARLINK-3227,2021,95.44,260.0,+,53.22,Active,1,LEO,USA,USA,Commercial,Communications,Falcon,1 49765U 21115AT  24181.55410327 -.00000667  00000+0 -23835-4 0  9999,2 49765  53.2179  34.0519 0001917  86.4759 273.6452 15.08831134143471,15.08831134,0.0001917,LEO
49766,STARLINK-3190,2021,95.44,260.0,+,53.22,Active,1,LEO,USA,USA,Commercial,Communications,Falcon,1 49766U 21115AU  24180.97265036  .00002099  00000+0  14990-3 0  9990,2 49766  53.2168  36.6595 0001233  80.1771 279.9360 15.08850610143385,15.0885061,0.0001233,LEO
49767,STARLINK-3192,2021,95.44,260.0,+,53.22,Active,1,LEO,USA,USA,Commercial,Communications,Falcon,1 49767U 21115AV  24181.29552694  .00003664  00000+0  24801-3 0  9997,2 49767  53.2160  35.1988 0000894  70.9721 289.1368 15.08861131143439,15.08861131,8.94e-05,LEO
49768,STARLINK-3196,2021,95.44,260.0,+,53.22,Active,1,LEO,USA,USA,Commercial,Communications,Falcon,1 49768U 21115AW  24181.57522709  .00001120  00000+0  88451-4 0  9990,2 49768  53.2165  33.9451 0001127  94.1564 265.9557 15.08831778143479,15.08831778,0.0001127,LEO
49769,STARLINK-3208,2021,95.44,260.0,+,53.22,Active,1,LEO,USA,USA,Commercial,Communications,Falcon,1 49769U 21115AX  24180.91376887  .00007646  00000+0  49774-3 0  9995,2 49769  53.2156  36.9590 0001126  91.0815 269.0306 15.08855354142260,15.08855354,0.0001126,LEO
49770,STARLINK-3191,2021,95.44,260.0,+,53.22,Active,1,LEO,USA,USA,Commercial,Communications,Falcon,1 49770U 21115AY  24180.92112347  .00005463  00000+0  36095-3 0  9994,2 49770  53.2183  36.9283 0001342  96.0832 264.0313 15.08850340143382,15.0885034,0.0001342,LEO
49771,STARLINK-3201,2021,95.44,260.0,+,53.22,Active,1,LEO,USA,USA,Commercial,Communications,Falcon,1 49771U 21115AZ  24180.92015052  .00005231  00000+0  34634-3 0  9990,2 49771  53.2183  36.8848 0001304 112.8099 247.3031 15.08860544143376,15.08860544,0.0001304,LEO
49772,GLOBAL-12,2021,93.59,-1.0,+,53.2,Active,0,LEO,USA,USA,Unknown,Unknown,Unknown,1 49772U 21115BA  24181.52695542  .00003289  00000+0  96377-4 0  9990,2 49772  53.2026 191.7588 0006970   8.8823 351.2304 15.38217263145229,15.38217263,0.000697,LEO
49773,GLOBAL-13,2021,93.6,-1.0,+,53.2,Active,0,LEO,USA,USA,Unknown,Unknown,Unknown,1 49773U 21115BB  24181.50091063  .00026965  00000+0  71467-3 0  9995,2 49773  53.2041 193.1151 0004781  27.8208 332.3051 15.38163321145207,15.38163321,0.0004781,LEO
49809,GSAT0223 (GALILEO 27),2021,844.7,733.0,+,57.3,Active,1,MEO,French Guiana,ESA,Commercial,Navigation (Global or Regional Positioning),Soyuz,1 49809U 21116A   24179.54627559 -.00000076  00000+0  00000+0 0  9999,2 49809  57.2968   1.0865 0001990 153.2127  27.2040  1.70475519 15919,1.70475519,0.000199,MEO
49810,GSAT0224 (GALILEO 28),2021,844.7,733.0,+,57.3,Active,1,MEO,French Guiana,ESA,Commercial,Navigation (Global or Regional Positioning),Soyuz,1 49810U 21116B   24179.94669115 -.00000077  00000+0  00000+0 0  9990,2 49810  57.2990   1.0742 0001809 131.1763  47.4899  1.70475524 15945,1.70475524,0.0001809,MEO
49812,TIANJIN UNIVERSITY 1 (TJU-1),2021,90.54,230.0,+,97.31,Active,1,LEO,PRC,China,Civil,Earth Observation,Ceres,1 49812U 21117A   24181.53853880  .00467673  86053-4  14634-2 0  9991,2 49812  97.3108 278.4505 0004444 201.9875 158.1209 15.91451860144198,15.9145186,0.0004444,LEO
49817,STPSAT-6,2021,1436.12,1000.0,+,0.02,Active,1,GSO,USA,USA,Military,Technology Development,Atlas,1 49817U 21118A   24181.46769200 -.00000042  00000+0  00000+0 0  9997,2 49817   0.0198  19.3229 0000123  28.1200 287.2998  1.00270223  9375,1.00270223,1.23e-05,GEO
49818,LDPE-1,2021,1441.77,500.0,+,2.3,Active,1,GSO,USA,USA,Military,Technology Development,Atlas,1 49818U 21118B   24180.71962987  .00000129  00000+0  00000+0 0  9997,2 49818   2.3054  87.9863 0005358  51.7616 252.3507  0.99877639  9421,0.99877639,0.0005358,GSO
49949,GLOBAL-17,2021,93.62,55.0,+,42.0,Active,1,LEO,New Zealand,USA,Commercial,Earth Observation,Electron,1 49949U 21120A   24180.59282978  .00033925  00000+0  88303-3 0  9992,2 49949  42.0037 293.7234 0009407 351.6278   8.4403 15.38203671144087,15.38203671,0.0009407,LEO
49950,GLOBAL-16,2021,93.62,55.0,+,42.0,Active,1,LEO,New Zealand,USA,Commercial,Earth Observation,Electron,1 49950U 21120B   24180.75627198  .00032829  00000+0  85365-3 0  9996,2 49950  42.0034 292.3320 0009271 351.1726   8.8949 15.38247964144104,15.38247964,0.0009271,LEO
49954,IXPE,2021,96.11,330.0,+,0.23,Active,1,LEO,USA,USA,Government,Space Science,Falcon,1 49954U 21121A   24180.91667824  .00007719  00000+0  56273-3 0  9995,2 49954   0.2314 306.5056 0009252  95.6023  23.3475 14.98340286  5803,14.98340286,0.0009252,LEO
49961,SHIJIAN-6 05A (SJ-6 05A),2021,96.35,-1.0,+,97.34,Active,1,LEO,PRC,China,Government,Earth Observation,Long March,1 49961U 21122A   24180.91992063  .00003227  00000+0  30325-3 0  9990,2 49961  97.3360 179.3297 0000947  99.8495 260.2833 14.94554294141277,14.94554294,9.47e-05,LEO
49962,SHIJIAN-6 05B (SJ-6 05B),2021,95.58,-1.0,+,97.32,Active,1,LEO,PRC,China,Government,Earth Observation,Long March,1 49962U 21122B   24180.95419559  .00004310  00000+0  29488-3 0  9991,2 49962  97.3240 180.1532 0002139  54.6486 305.4942 15.06597388141381,15.06597388,0.0002139,LEO
50001,EXPRESS AMU-7,2021,1436.1,2150.0,+,0.02,Active,1,GSO,Kazakhstan,Russia/USSR,Commercial,Communications,Proton,1 50001U 21123A   24180.82687003 -.00000240  00000+0  00000+0 0  9999,2 50001   0.0216 344.8858 0000225  82.2159 292.9007  1.00270826  9333,1.00270826,2.25e-05,GEO
50002,EXPRESS AMU-3,2021,1436.09,1980.0,+,0.02,Active,1,GSO,Kazakhstan,Russia/USSR,Commercial,Communications,Proton,1 50002U 21123B   24180.94332093 -.00000317  00000+0  00000+0 0  9994,2 50002   0.0204   7.9921 0000519  70.8760 281.1377  1.00271709  9304,1.00271709,5.19e-05,GEO
50005,TIANLIAN 2-02,2021,1436.11,5000.0,+,0.64,Active,1,GSO,PRC,China,Government,Communications,Long March,1 50005U 21124A   24181.10466149 -.00000010  00000+0  00000+0 0  9997,2 50005   0.6413 273.6758 0000975 167.5878  45.0725  1.00270574  9409,1.00270574,9.75e-05,GEO
50156,STARLINK-3317,2021,95.44,260.0,+,53.22,Active,1,LEO,USA,USA,Commercial,Communications,Falcon,1 50156U 21125A   24181.20173105  .00000817  00000+0  69422-4 0  9995,2 50156  53.2171 145.6270 0001520 108.2995 251.8163 15.08838054142752,15.08838054,0.000152,LEO
50157,STARLINK-3313,2021,95.44,260.0,+,53.22,Active,1,LEO,USA,USA,Commercial,Communications,Falcon,1 50157U 21125B   24181.22560740  .00002028  00000+0  14545-3 0  9994,2 50157  53.2155 155.5169 0001287  95.5455 264.5684 15.08846720140005,15.0884672,0.0001287,LEO
50158,STARLINK-3309,2021,95.44,260.0,+,53.22,Active,1,LEO,USA,USA,Commercial,Communications,Falcon,1 50158U 21125C   24181.34801462  .00000805  00000+0  68667-4 0  9993,2 50158  53.2162 154.9744 0001396  99.9462 260.1687 15.08838241140029,15.08838241,0.0001396,LEO
50159,STARLINK-3297,2021,95.44,260.0,+,53.22,Active,1,LEO,USA,USA,Commercial,Communications,Falcon,1 50159U 21125D   24181.21185249  .00001015  00000+0  81880-4 0  9994,2 50159  53.2160 155.5837 0001300  96.7417 263.3723 15.08836641139541,15.08836641,0.00013,LEO
50160,STARLINK-3288,2021,95.43,260.0,+,53.22,Active,1,LEO,USA,USA,Commercial,Communications,Falcon,1 50160U 21125E   24181.21824645  .00001692  00000+0  12434-3 0  9995,2 50160  53.2157 155.5506 0001309  94.0317 266.0824 15.08846011142606,15.08846011,0.0001309,LEO
50161,STARLINK-3304,2021,95.44,260.0,+,53.22,Active,1,LEO,USA,USA,Commercial,Communications,Falcon,1 50161U 21125F   24181.35440954  .00000492  00000+0  49017-4 0  9993,2 50161  53.2157 154.9367 0001305  88.6590 271.4551 15.08846188142627,15.08846188,0.0001305,LEO
50163,STARLINK-3306,2021,95.44,260.0,+,53.22,Active,1,LEO,USA,USA,Commercial,Communications,Falcon,1 50163U 21125H   24181.13913771 -.00000412  00000+0 -78088-5 0  9998,2 50163  53.2159 135.8925 0001202  88.5975 271.5154 15.08839035142871,15.08839035,0.0001202,LEO
50165,STARLINK-3298,2021,95.44,260.0,+,53.22,Active,1,LEO,USA,USA,Commercial,Communications,Falcon,1 50165U 21125K   24181.20720739  .00001147  00000+0  90129-4 0  9991,2 50165  53.2161 155.5960 0001300  90.2043 269.9098 15.08847523140001,15.08847523,0.00013,LEO
50166,STARLINK-3305,2021,95.44,260.0,+,53.22,Active,1,LEO,USA,USA,Commercial,Communications,Falcon,1 50166U 21125L   24181.29003951  .00002236  00000+0  15847-3 0  9994,2 50166  53.2156 145.1581 0001094  91.9602 268.1515 15.08845771140153,15.08845771,0.0001094,LEO
50167,STARLINK-3271,2021,95.44,260.0,+,53.22,Active,1,LEO,USA,USA,Commercial,Communications,Falcon,1 50167U 21125M   24181.33329152  .00006929  00000+0  45318-3 0  9993,2 50167  53.2156 155.0377 0001397 104.5633 255.5514 15.08827993142627,15.08827993,0.0001397,LEO
50168,STARLINK-3296,2021,95.44,260.0,+,53.21,Active,1,LEO,USA,USA,Commercial,Communications,Falcon,1 50168U 21125N   24181.16862401  .00000271  00000+0  35103-4 0  9990,2 50168  53.2152 145.8558 0001315  93.1411 266.9732 15.08839192140135,15.08839192,0.0001315,LEO
